[{"OBJECT_NAME":"YAOGAN-30 02C","OBJECT_ID":"2017-058C","EPOCH":"2026-03-09T23:23:41.320320","MEAN_MOTION":15.0385567,"ECCENTRICITY":0.00042194,"INCLINATION":34.9965,"RA_OF_ASC_NODE":266.8068,"ARG_OF_PERICENTER":49.9722,"MEAN_ANOMALY":310.1357,"EPHEMERIS_TYPE":0,"CLASSIFICATION_TYPE":"U","NORAD_CAT_ID":42947,"ELEMENT_SET_NO":999,"REV_AT_EPOCH":46087,"BSTAR":0.00031396475,"MEAN_MOTION_DOT":4.384e-5,"MEAN_MOTION_DDOT":0},{"OBJECT_NAME":"STARLINK-34845","OBJECT_ID":"2025-184S","EPOCH":"2026-03-09T21:20:10.246272","MEAN_MOTION":15.05649466,"ECCENTRICITY":0.00010476,"INCLINATION":97.6041,"RA_OF_ASC_NODE":122.8987,"ARG_OF_PERICENTER":90.1053,"MEAN_ANOMALY":270.0294,"EPHEMERIS_TYPE":0,"CLASSIFICATION_TYPE":"U","NORAD_CAT_ID":65289,"ELEMENT_SET_NO":999,"REV_AT_EPOCH":3133,"BSTAR":0.00024019379,"MEAN_MOTION_DOT":3.407e-5,"MEAN_MOTION_DDOT":0}]
